STARLINK-36725          
1 68285U 26055Z   26095.83336806  .00050975  00000+0  26061-3 0  9999
2 68285  53.1584 201.0607 0000882  89.0874  45.9159 15.80845254  3993
STARLINK-36998          
1 68286U 26055AA  26095.83336806 -.00015032  00000+0 -72653-4 0  9996
2 68286  53.1583 201.0453 0001098  80.2790  63.2240 15.80901125  3996
STARLINK-37165          
1 68287U 26055AB  26095.83336806  .00089295  00000+0  45237-3 0  9994
2 68287  53.1583 201.0345 0000774  45.1469 102.6795 15.80820755  3992
STARLINK-37016          
1 68288U 26055AC  26095.83336806  .00090644  00000+0  45916-3 0  9999
2 68288  53.1583 201.0524 0000975  60.9812  78.3032 15.80816927  3991
STARLINK-37010          
1 68289U 26055AD  26095.83336806  .00044910  00000+0  23028-3 0  9995
2 68289  53.1584 201.0256 0002037  59.6009  92.4950 15.80835560  3999
STARLINK-37151          
1 68290U 26055AE  26095.83336806  .00102730  00000+0  51963-3 0  9991
2 68290  53.1583 201.0166 0000678  40.0087 116.3883 15.80798307  3997
STRIX-6                 
1 68291U 26056A   26095.84208473  .00004594  00000+0  38790-3 0  9994
2 68291  50.2836 331.6531 0016473 326.6333  33.3576 14.99711376  2413
ELECTRON KICK STAGE R/B 
1 68293U 26056C   26095.81456564  .00096966  00000+0  14851-2 0  9994
2 68293  50.2909 326.9704 0152051  76.2434 285.5405 15.41373008  2481
STARLINK-37107          
1 68294U 26057A   26095.83336806  .00041446  00000+0  21619-3 0  9998
2 68294  97.2832 219.5446 0001235 103.1131 203.0589 15.80805641  3529
STARLINK-37147          
1 68295U 26057B   26095.83336806  .00085621  00000+0  44387-3 0  9999
2 68295  97.2829 219.5456 0001446 112.0129 198.4283 15.80790749  3516
STARLINK-37142          
1 68296U 26057C   26095.83336806  .00053691  00000+0  27954-3 0  9993
2 68296  97.2825 219.5504 0001202 106.5394 216.7305 15.80799134  3403
STARLINK-37115          
1 68297U 26057D   26095.83336806  .00099787  00000+0  51615-3 0  9991
2 68297  97.2824 219.5473 0001399  62.8355 256.1264 15.80798999  3406
STARLINK-36355          
1 68298U 26057E   26095.83336806  .00082012  00000+0  42543-3 0  9995
2 68298  97.2828 219.5466 0000852 129.3452 185.3735 15.80788588  3671
STARLINK-37118          
1 68299U 26057F   26095.83336806  .00048143  00000+0  25068-3 0  9996
2 68299  97.2820 219.5529 0001285  71.5239 260.2680 15.80817084  3515
STARLINK-36875          
1 68300U 26057G   26095.83336806  .00065262  00000+0  33902-3 0  9996
2 68300  97.2822 219.5513 0001423  71.4784 256.0417 15.80808261  3575
STARLINK-37099          
1 68301U 26057H   26095.83336806 -.00000665  00000+0 -27289-5 0  9998
2 68301  97.2818 219.5550 0001190  83.3564 252.7183 15.80834404  3404
STARLINK-37007          
1 68302U 26057J   26095.83336806  .00098817  00000+0  51145-3 0  9999
2 68302  97.2816 219.5573 0000923  75.0924 269.5367 15.80788703  3623
