[{"OBJECT_NAME":"STARLINK-36725","OBJECT_ID":"2026-055Z","EPOCH":"2026-04-05T20:00:03.000384","MEAN_MOTION":15.80845254,"ECCENTRICITY":8.82e-5,"INCLINATION":53.1584,"RA_OF_ASC_NODE":201.0607,"ARG_OF_PERICENTER":89.0874,"MEAN_ANOMALY":45.9159,"EPHEMERIS_TYPE":0,"CLASSIFICATION_TYPE":"U","NORAD_CAT_ID":68285,"ELEMENT_SET_NO":999,"REV_AT_EPOCH":399,"BSTAR":0.00026061,"MEAN_MOTION_DOT":0.00050975,"MEAN_MOTION_DDOT":0},{"OBJECT_NAME":"STARLINK-36998","OBJECT_ID":"2026-055AA","EPOCH":"2026-04-05T20:00:03.000384","MEAN_MOTION":15.80901125,"ECCENTRICITY":0.0001098,"INCLINATION":53.1583,"RA_OF_ASC_NODE":201.0453,"ARG_OF_PERICENTER":80.279,"MEAN_ANOMALY":63.224,"EPHEMERIS_TYPE":0,"CLASSIFICATION_TYPE":"U","NORAD_CAT_ID":68286,"ELEMENT_SET_NO":999,"REV_AT_EPOCH":399,"BSTAR":-7.2653e-5,"MEAN_MOTION_DOT":-0.00015032,"MEAN_MOTION_DDOT":0},{"OBJECT_NAME":"STARLINK-37165","OBJECT_ID":"2026-055AB","EPOCH":"2026-04-05T20:00:03.000384","MEAN_MOTION":15.80820755,"ECCENTRICITY":7.74e-5,"INCLINATION":53.1583,"RA_OF_ASC_NODE":201.0345,"ARG_OF_PERICENTER":45.1469,"MEAN_ANOMALY":102.6795,"EPHEMERIS_TYPE":0,"CLASSIFICATION_TYPE":"U","NORAD_CAT_ID":68287,"ELEMENT_SET_NO":999,"REV_AT_EPOCH":399,"BSTAR":0.00045237,"MEAN_MOTION_DOT":0.00089295,"MEAN_MOTION_DDOT":0},{"OBJECT_NAME":"STARLINK-37016","OBJECT_ID":"2026-055AC","EPOCH":"2026-04-05T20:00:03.000384","MEAN_MOTION":15.80816927,"ECCENTRICITY":9.75e-5,"INCLINATION":53.1583,"RA_OF_ASC_NODE":201.0524,"ARG_OF_PERICENTER":60.9812,"MEAN_ANOMALY":78.3032,"EPHEMERIS_TYPE":0,"CLASSIFICATION_TYPE":"U","NORAD_CAT_ID":68288,"ELEMENT_SET_NO":999,"REV_AT_EPOCH":399,"BSTAR":0.00045916,"MEAN_MOTION_DOT":0.00090644,"MEAN_MOTION_DDOT":0},{"OBJECT_NAME":"STARLINK-37010","OBJECT_ID":"2026-055AD","EPOCH":"2026-04-05T20:00:03.000384","MEAN_MOTION":15.8083556,"ECCENTRICITY":0.0002037,"INCLINATION":53.1584,"RA_OF_ASC_NODE":201.0256,"ARG_OF_PERICENTER":59.6009,"MEAN_ANOMALY":92.495,"EPHEMERIS_TYPE":0,"CLASSIFICATION_TYPE":"U","NORAD_CAT_ID":68289,"ELEMENT_SET_NO":999,"REV_AT_EPOCH":399,"BSTAR":0.00023028,"MEAN_MOTION_DOT":0.0004491,"MEAN_MOTION_DDOT":0},{"OBJECT_NAME":"STARLINK-37151","OBJECT_ID":"2026-055AE","EPOCH":"2026-04-05T20:00:03.000384","MEAN_MOTION":15.80798307,"ECCENTRICITY":6.78e-5,"INCLINATION":53.1583,"RA_OF_ASC_NODE":201.0166,"ARG_OF_PERICENTER":40.0087,"MEAN_ANOMALY":116.3883,"EPHEMERIS_TYPE":0,"CLASSIFICATION_TYPE":"U","NORAD_CAT_ID":68290,"ELEMENT_SET_NO":999,"REV_AT_EPOCH":399,"BSTAR":0.00051963,"MEAN_MOTION_DOT":0.0010273,"MEAN_MOTION_DDOT":0},{"OBJECT_NAME":"STRIX-6","OBJECT_ID":"2026-056A","EPOCH":"2026-04-05T20:12:36.120672","MEAN_MOTION":14.99711376,"ECCENTRICITY":0.0016473,"INCLINATION":50.2836,"RA_OF_ASC_NODE":331.6531,"ARG_OF_PERICENTER":326.6333,"MEAN_ANOMALY":33.3576,"EPHEMERIS_TYPE":0,"CLASSIFICATION_TYPE":"U","NORAD_CAT_ID":68291,"ELEMENT_SET_NO":999,"REV_AT_EPOCH":241,"BSTAR":0.0003879,"MEAN_MOTION_DOT":4.594e-5,"MEAN_MOTION_DDOT":0},{"OBJECT_NAME":"ELECTRON KICK STAGE R/B","OBJECT_ID":"2026-056C","EPOCH":"2026-04-05T19:32:58.471296","MEAN_MOTION":15.41373008,"ECCENTRICITY":0.0152051,"INCLINATION":50.2909,"RA_OF_ASC_NODE":326.9704,"ARG_OF_PERICENTER":76.2434,"MEAN_ANOMALY":285.5405,"EPHEMERIS_TYPE":0,"CLASSIFICATION_TYPE":"U","NORAD_CAT_ID":68293,"ELEMENT_SET_NO":999,"REV_AT_EPOCH":248,"BSTAR":0.0014851,"MEAN_MOTION_DOT":0.00096966,"MEAN_MOTION_DDOT":0},{"OBJECT_NAME":"STARLINK-37107","OBJECT_ID":"2026-057A","EPOCH":"2026-04-05T20:00:03.000384","MEAN_MOTION":15.80805641,"ECCENTRICITY":0.0001235,"INCLINATION":97.2832,"RA_OF_ASC_NODE":219.5446,"ARG_OF_PERICENTER":103.1131,"MEAN_ANOMALY":203.0589,"EPHEMERIS_TYPE":0,"CLASSIFICATION_TYPE":"U","NORAD_CAT_ID":68294,"ELEMENT_SET_NO":999,"REV_AT_EPOCH":352,"BSTAR":0.00021619,"MEAN_MOTION_DOT":0.00041446,"MEAN_MOTION_DDOT":0},{"OBJECT_NAME":"STARLINK-37147","OBJECT_ID":"2026-057B","EPOCH":"2026-04-05T20:00:03.000384","MEAN_MOTION":15.80790749,"ECCENTRICITY":0.0001446,"INCLINATION":97.2829,"RA_OF_ASC_NODE":219.5456,"ARG_OF_PERICENTER":112.0129,"MEAN_ANOMALY":198.4283,"EPHEMERIS_TYPE":0,"CLASSIFICATION_TYPE":"U","NORAD_CAT_ID":68295,"ELEMENT_SET_NO":999,"REV_AT_EPOCH":351,"BSTAR":0.00044387,"MEAN_MOTION_DOT":0.00085621,"MEAN_MOTION_DDOT":0},{"OBJECT_NAME":"STARLINK-37142","OBJECT_ID":"2026-057C","EPOCH":"2026-04-05T20:00:03.000384","MEAN_MOTION":15.80799134,"ECCENTRICITY":0.0001202,"INCLINATION":97.2825,"RA_OF_ASC_NODE":219.5504,"ARG_OF_PERICENTER":106.5394,"MEAN_ANOMALY":216.7305,"EPHEMERIS_TYPE":0,"CLASSIFICATION_TYPE":"U","NORAD_CAT_ID":68296,"ELEMENT_SET_NO":999,"REV_AT_EPOCH":340,"BSTAR":0.00027954,"MEAN_MOTION_DOT":0.00053691,"MEAN_MOTION_DDOT":0},{"OBJECT_NAME":"STARLINK-37115","OBJECT_ID":"2026-057D","EPOCH":"2026-04-05T20:00:03.000384","MEAN_MOTION":15.80798999,"ECCENTRICITY":0.0001399,"INCLINATION":97.2824,"RA_OF_ASC_NODE":219.5473,"ARG_OF_PERICENTER":62.8355,"MEAN_ANOMALY":256.1264,"EPHEMERIS_TYPE":0,"CLASSIFICATION_TYPE":"U","NORAD_CAT_ID":68297,"ELEMENT_SET_NO":999,"REV_AT_EPOCH":340,"BSTAR":0.00051615,"MEAN_MOTION_DOT":0.00099787,"MEAN_MOTION_DDOT":0},{"OBJECT_NAME":"STARLINK-36355","OBJECT_ID":"2026-057E","EPOCH":"2026-04-05T20:00:03.000384","MEAN_MOTION":15.80788588,"ECCENTRICITY":8.52e-5,"INCLINATION":97.2828,"RA_OF_ASC_NODE":219.5466,"ARG_OF_PERICENTER":129.3452,"MEAN_ANOMALY":185.3735,"EPHEMERIS_TYPE":0,"CLASSIFICATION_TYPE":"U","NORAD_CAT_ID":68298,"ELEMENT_SET_NO":999,"REV_AT_EPOCH":367,"BSTAR":0.00042543,"MEAN_MOTION_DOT":0.00082012,"MEAN_MOTION_DDOT":0},{"OBJECT_NAME":"STARLINK-37118","OBJECT_ID":"2026-057F","EPOCH":"2026-04-05T20:00:03.000384","MEAN_MOTION":15.80817084,"ECCENTRICITY":0.0001285,"INCLINATION":97.282,"RA_OF_ASC_NODE":219.5529,"ARG_OF_PERICENTER":71.5239,"MEAN_ANOMALY":260.268,"EPHEMERIS_TYPE":0,"CLASSIFICATION_TYPE":"U","NORAD_CAT_ID":68299,"ELEMENT_SET_NO":999,"REV_AT_EPOCH":351,"BSTAR":0.00025068,"MEAN_MOTION_DOT":0.00048143,"MEAN_MOTION_DDOT":0},{"OBJECT_NAME":"STARLINK-36875","OBJECT_ID":"2026-057G","EPOCH":"2026-04-05T20:00:03.000384","MEAN_MOTION":15.80808261,"ECCENTRICITY":0.0001423,"INCLINATION":97.2822,"RA_OF_ASC_NODE":219.5513,"ARG_OF_PERICENTER":71.4784,"MEAN_ANOMALY":256.0417,"EPHEMERIS_TYPE":0,"CLASSIFICATION_TYPE":"U","NORAD_CAT_ID":68300,"ELEMENT_SET_NO":999,"REV_AT_EPOCH":357,"BSTAR":0.00033902,"MEAN_MOTION_DOT":0.00065262,"MEAN_MOTION_DDOT":0},{"OBJECT_NAME":"STARLINK-37099","OBJECT_ID":"2026-057H","EPOCH":"2026-04-05T20:00:03.000384","MEAN_MOTION":15.80834404,"ECCENTRICITY":0.000119,"INCLINATION":97.2818,"RA_OF_ASC_NODE":219.555,"ARG_OF_PERICENTER":83.3564,"MEAN_ANOMALY":252.7183,"EPHEMERIS_TYPE":0,"CLASSIFICATION_TYPE":"U","NORAD_CAT_ID":68301,"ELEMENT_SET_NO":999,"REV_AT_EPOCH":340,"BSTAR":-2.7289e-6,"MEAN_MOTION_DOT":-6.65e-6,"MEAN_MOTION_DDOT":0},{"OBJECT_NAME":"STARLINK-37007","OBJECT_ID":"2026-057J","EPOCH":"2026-04-05T20:00:03.000384","MEAN_MOTION":15.80788703,"ECCENTRICITY":9.23e-5,"INCLINATION":97.2816,"RA_OF_ASC_NODE":219.5573,"ARG_OF_PERICENTER":75.0924,"MEAN_ANOMALY":269.5367,"EPHEMERIS_TYPE":0,"CLASSIFICATION_TYPE":"U","NORAD_CAT_ID":68302,"ELEMENT_SET_NO":999,"REV_AT_EPOCH":362,"BSTAR":0.00051145,"MEAN_MOTION_DOT":0.00098817,"MEAN_MOTION_DDOT":0}]
